{"fetched_at":"2026-03-30T06:02:59Z","count":15439,"tles":[{"name":"STARLINK-11652 [DTC]","line1":"1 63315U 25057J   26087.86452587  .00279921  00000+0  20980-2 0  9995","line2":"2 63315  43.0012 148.9198 0002119 295.9780  64.0869 15.71002659 60222","category":"Starlink"}]}