{
  "norad_id": 63315,
  "name": "STARLINK-11652 [DTC]",
  "history": [
    {
      "epoch": "2026-03-28T20:44:55.035168Z",
      "apogee_km": 357.45763323785286,
      "perigee_km": 354.6027503985533,
      "latitude_deg": -1.2888858836541014e-05,
      "longitude_deg": 11.411621563289541,
      "height_km": 355.1779988798159,
      "semi_major_axis_km": 6734.167191818203,
      "eccentricity": 0.00021197,
      "inclination_deg": 43.0012,
      "raan_deg": 148.9198,
      "arg_perigee_deg": 295.978,
      "mean_anomaly_deg": 64.0869,
      "mean_motion_rev_day": 15.71002659
    }
  ]
}